NORAD_CAT_ID,OBJECT_NAME,OBJECT_TYPE,EPOCH,MEAN_MOTION,ECCENTRICITY,INCLINATION,RA_OF_ASC_NODE,ARG_OF_PERICENTER,MEAN_ANOMALY,BSTAR,MEAN_MOTION_DOT,MEAN_MOTION_DDOT,TLE_LINE0,TLE_LINE1,TLE_LINE2,SEMIMAJOR_AXIS,PERIOD,APOGEE,PERIGEE,DECAYED
53149.0,STARLINK-4021,PAYLOAD,2023-12-01 20:41:51,15.0885062,0.0001327,53.217,285.0768,86.7146,273.3998,0.00060857,9.413e-05,0.0,0 STARLINK-4021,1 53149U 22083T   23335.86239594  .00009413  00000-0  60857-3 0  9995,2 53149  53.2170 285.0768 0001327  86.7146 273.3998 15.08850620 76237,6917.848,95.437,540.631,538.795,0.0
53149.0,STARLINK-4021,PAYLOAD,2023-12-02 01:28:00,15.08864514,0.0001683,53.2159,284.1893,62.9821,297.1343,0.0010049,0.00015752,0.0,0 STARLINK-4021,1 53149U 22083T   23336.06111284  .00015752  00000-0  10049-2 0  9993,2 53149  53.2159 284.1893 0001683  62.9821 297.1343 15.08864514 76891,6917.805,95.436,540.835,538.506,0.0
53149.0,STARLINK-4021,PAYLOAD,2023-12-02 07:49:31,15.08899517,0.0002482,53.2162,282.9952,44.7127,315.4065,0.0018897,0.00029965,0.0,0 STARLINK-4021,1 53149U 22083T   23336.32606094  .00029965  00000-0  18897-2 0  9990,2 53149  53.2162 282.9952 0002482  44.7127 315.4065 15.08899517 76933,6917.698,95.434,541.28,537.847,0.0
53149.0,STARLINK-4021,PAYLOAD,2023-12-03 02:54:10,15.08822184,0.0001681,53.216,279.4273,115.8554,244.2611,-0.00057936,-9.492e-05,0.0,0 STARLINK-4021,1 53149U 22083T   23337.12095581 -.00009492  00000-0 -57936-3 0  9995,2 53149  53.2160 279.4273 0001681 115.8554 244.2611 15.08822184 77058,6917.935,95.439,540.963,538.637,0.0
53149.0,STARLINK-4021,PAYLOAD,2023-12-03 06:04:56,15.08822253,0.0001994,53.2169,278.8269,126.8883,233.2292,-0.00040363,-6.703e-05,0.0,0 STARLINK-4021,1 53149U 22083T   23337.25343578 -.00006703  00000-0 -40363-3 0  9999,2 53149  53.2169 278.8269 0001994 126.8883 233.2292 15.08822253 76441,6917.935,95.439,541.179,538.42,0.0
53149.0,STARLINK-4021,PAYLOAD,2023-12-03 10:51:06,15.08827592,0.0001769,53.2167,277.9372,121.387,238.7295,-0.00015218,-2.708e-05,0.0,0 STARLINK-4021,1 53149U 22083T   23337.45215734 -.00002708  00000-0 -15218-3 0  9995,2 53149  53.2167 277.9372 0001769 121.3870 238.7295 15.08827592 77108,6917.918,95.438,541.007,538.56,0.0
53149.0,STARLINK-4021,PAYLOAD,2023-12-04 05:55:44,15.08841588,0.0001812,53.217,274.3682,114.8478,245.2703,0.00086458,0.00013499,0.0,0 STARLINK-4021,1 53149U 22083T   23338.24704618  .00013499  00000-0  86458-3 0  9998,2 53149  53.2170 274.3682 0001812 114.8478 245.2703 15.08841588 77228,6917.876,95.437,540.994,538.487,0.0
53149.0,STARLINK-4021,PAYLOAD,2023-12-05 02:35:45,15.08857235,0.0001845,53.217,270.5019,115.4348,244.6836,0.00069714,0.0001083,0.0,0 STARLINK-4021,1 53149U 22083T   23339.10816173  .00010830  00000-0  69714-3 0  9996,2 53149  53.2170 270.5019 0001845 115.4348 244.6836 15.08857235 77359,6917.828,95.436,540.969,538.416,0.0
53149.0,STARLINK-4021,PAYLOAD,2023-12-05 20:04:59,15.08844467,0.0002205,53.218,267.2306,106.8989,253.2245,0.00066928,0.00010381,0.0,0 STARLINK-4021,1 53149U 22083T   23339.83680050  .00010381  00000-0  66928-3 0  9994,2 53149  53.2180 267.2306 0002205 106.8989 253.2245 15.08844467 77463,6917.867,95.437,541.257,538.206,0.0
53149.0,STARLINK-4021,PAYLOAD,2023-12-06 04:01:55,15.08846526,0.0001879,53.2176,265.7441,108.4446,251.675,0.00019107,2.755e-05,0.0,0 STARLINK-4021,1 53149U 22083T   23340.16799996  .00002755  00000-0  19107-3 0  9995,2 53149  53.2176 265.7441 0001879 108.4446 251.6750 15.08846526 77510,6917.86,95.437,541.025,538.426,0.0
53149.0,STARLINK-4021,PAYLOAD,2023-12-07 03:52:42,15.08835462,0.0001687,53.2173,261.2832,101.4439,258.6743,-1.9932e-05,-6.05e-06,0.0,0 STARLINK-4021,1 53149U 22083T   23341.16160724 -.00000605  00000-0 -19932-4 0  9998,2 53149  53.2173 261.2832 0001687 101.4439 258.6743 15.08835462 77666,6917.894,95.438,540.926,538.592,0.0
53149.0,STARLINK-4021,PAYLOAD,2023-12-08 02:08:06,15.08844576,0.0001431,53.2162,257.1212,95.9175,264.198,0.00014777,2.065e-05,0.0,0 STARLINK-4021,1 53149U 22083T   23342.08896333  .00002065  00000-0  14777-3 0  9993,2 53149  53.2162 257.1212 0001431  95.9175 264.1980 15.08844576 77808,6917.866,95.437,540.721,538.741,0.0
53149.0,STARLINK-4021,PAYLOAD,2023-12-09 03:34:16,15.08843673,0.0001428,53.2164,252.3622,90.7005,269.415,0.00014132,1.962e-05,0.0,0 STARLINK-4021,1 53149U 22083T   23343.14880442  .00001962  00000-0  14132-3 0  9995,2 53149  53.2164 252.3622 0001428  90.7005 269.4150 15.08843673 77964,6917.869,95.437,540.722,538.746,0.0
53149.0,STARLINK-4021,PAYLOAD,2023-12-10 03:25:03,15.08843633,0.0001507,53.217,247.902,87.7701,272.3463,9.0332e-05,1.15e-05,0.0,0 STARLINK-4021,1 53149U 22083T   23344.14240329  .00001150  00000-0  90332-4 0  9996,2 53149  53.2170 247.9020 0001507  87.7701 272.3463 15.08843633 77483,6917.869,95.437,540.777,538.692,0.0
53149.0,STARLINK-4021,PAYLOAD,2023-12-10 22:29:41,15.08838484,0.0001442,53.2185,244.3312,91.7851,268.3306,2.8546e-05,1.66e-06,0.0,0 STARLINK-4021,1 53149U 22083T   23344.93728649  .00000166  00000-0  28546-4 0  9993,2 53149  53.2185 244.3312 0001442  91.7851 268.3306 15.08838484 77606,6917.885,95.438,540.748,538.752,0.0
53149.0,STARLINK-4021,PAYLOAD,2023-12-11 00:05:04,15.08839528,0.0001511,53.2173,244.0344,88.9327,271.1839,3.515e-05,2.71e-06,0.0,0 STARLINK-4021,1 53149U 22083T   23345.00352580  .00000271  00000-0  35150-4 0  9995,2 53149  53.2173 244.0344 0001511  88.9327 271.1839 15.08839528 78242,6917.882,95.438,540.792,538.702,0.0
53149.0,STARLINK-4021,PAYLOAD,2023-12-11 22:20:28,15.08840004,0.0001501,53.2164,239.8745,84.5561,275.5602,0.00011918,1.609e-05,0.0,0 STARLINK-4021,1 53149U 22083T   23345.93088219  .00001609  00000-0  11918-3 0  9993,2 53149  53.2164 239.8745 0001501  84.5561 275.5602 15.08840004 77752,6917.88,95.438,540.784,538.707,0.0
53149.0,STARLINK-4021,PAYLOAD,2023-12-12 20:35:52,15.08839036,0.0001454,53.2161,235.7127,86.7345,273.3813,5.5243e-05,5.91e-06,0.0,0 STARLINK-4021,1 53149U 22083T   23346.85824647  .00000591  00000-0  55243-4 0  9997,2 53149  53.2161 235.7127 0001454  86.7345 273.3813 15.08839036 78528,6917.883,95.438,540.754,538.742,0.0
53149.0,STARLINK-4021,PAYLOAD,2023-12-12 22:11:15,15.08839404,0.0001449,53.2161,235.4153,87.088,273.0278,5.6393e-05,6.1e-06,0.0,0 STARLINK-4021,1 53149U 22083T   23346.92448640  .00000610  00000-0  56393-4 0  9999,2 53149  53.2161 235.4153 0001449  87.0880 273.0278 15.08839404 77908,6917.882,95.438,540.75,538.745,0.0
53149.0,STARLINK-4021,PAYLOAD,2023-12-13 22:02:02,15.0883901,0.0001809,53.217,230.955,114.3607,245.7574,5.3589e-05,5.65e-06,0.0,0 STARLINK-4021,1 53149U 22083T   23347.91808523  .00000565  00000-0  53589-4 0  9992,2 53149  53.2170 230.9550 0001809 114.3607 245.7574 15.08839010 78055,6917.883,95.438,541.0,538.497,0.0
53149.0,STARLINK-4021,PAYLOAD,2023-12-13 23:37:25,15.08839343,0.0001543,53.2165,230.6576,99.3773,260.7394,5.1951e-05,5.39e-06,0.0,0 STARLINK-4021,1 53149U 22083T   23347.98432584  .00000539  00000-0  51951-4 0  9991,2 53149  53.2165 230.6576 0001543  99.3773 260.7394 15.08839343 78691,6917.882,95.438,540.815,538.68,0.0
53149.0,STARLINK-4021,PAYLOAD,2023-12-14 21:52:49,15.08840016,0.0001448,53.2159,226.494,97.059,263.0567,7.3784e-05,8.87e-06,0.0,0 STARLINK-4021,1 53149U 22083T   23348.91168584  .00000887  00000-0  73784-4 0  9995,2 53149  53.2159 226.4940 0001448  97.0590 263.0567 15.08840016 78202,6917.88,95.438,540.747,538.744,0.0
53149.0,STARLINK-4021,PAYLOAD,2023-12-14 23:28:12,15.08842311,0.0001446,53.2162,226.1965,91.0453,269.0705,9.4198e-05,1.212e-05,0.0,0 STARLINK-4021,1 53149U 22083T   23348.97792417  .00001212  00000-0  94198-4 0  9994,2 53149  53.2162 226.1965 0001446  91.0453 269.0705 15.08842311 78211,6917.873,95.437,540.739,538.738,0.0
53149.0,STARLINK-4021,PAYLOAD,2023-12-15 20:08:14,15.08834051,0.0001432,53.216,222.3312,83.4356,276.6799,-3.6296e-05,-8.65e-06,0.0,0 STARLINK-4021,1 53149U 22083T   23349.83905632 -.00000865  00000-0 -36296-4 0  9995,2 53149  53.2160 222.3312 0001432  83.4356 276.6799 15.08834051 78977,6917.899,95.438,540.754,538.773,0.0
53149.0,STARLINK-4021,PAYLOAD,2023-12-15 21:43:37,15.0883137,0.0001448,53.2159,222.0339,83.6951,276.4206,-9.8804e-06,-4.45e-06,0.0,0 STARLINK-4021,1 53149U 22083T   23349.90529704 -.00000445  00000-0 -98804-5 0  9993,2 53149  53.2159 222.0339 0001448  83.6951 276.4206 15.08831370 78355,6917.907,95.438,540.773,538.77,0.0
53149.0,STARLINK-4021,PAYLOAD,2023-12-15 23:19:01,15.08813757,0.0001574,53.2161,221.7369,79.3502,280.7667,0.0002285,3.348e-05,0.0,0 STARLINK-4021,1 53149U 22083T   23349.97154110  .00003348  00000-0  22850-3 0  9994,2 53149  53.2161 221.7369 0001574  79.3502 280.7667 15.08813757 78999,6917.961,95.439,540.914,538.737,0.0
53149.0,STARLINK-4021,PAYLOAD,2023-12-16 19:59:00,15.08843752,0.0001437,53.2168,217.8679,88.3369,271.7788,7.6161e-05,9.24e-06,0.0,0 STARLINK-4021,1 53149U 22083T   23350.83264873  .00000924  00000-0  76161-4 0  9991,2 53149  53.2168 217.8679 0001437  88.3369 271.7788 15.08843752 79123,6917.869,95.437,540.728,538.74,0.0
53149.0,STARLINK-4021,PAYLOAD,2023-12-16 21:34:23,15.08844473,0.0001577,53.2161,217.5737,72.1487,287.9677,7.9437e-05,9.77e-06,0.0,0 STARLINK-4021,1 53149U 22083T   23350.89888879  .00000977  00000-0  79437-4 0  9992,2 53149  53.2161 217.5737 0001577  72.1487 287.9677 15.08844473 78503,6917.867,95.437,540.823,538.641,0.0
53149.0,STARLINK-4021,PAYLOAD,2023-12-17 21:25:10,15.08847132,0.0001676,53.2164,213.1115,70.5037,289.6136,0.00018457,2.651e-05,0.0,0 STARLINK-4021,1 53149U 22083T   23351.89248520  .00002651  00000-0  18457-3 0  9991,2 53149  53.2164 213.1115 0001676  70.5037 289.6136 15.08847132 78651,6917.859,95.437,540.883,538.564,0.0
53149.0,STARLINK-4021,PAYLOAD,2023-12-18 19:40:34,15.08826531,0.0001902,53.2158,208.9447,123.3507,236.7668,0.00025354,3.748e-05,0.0,0 STARLINK-4021,1 53149U 22083T   23352.81984767  .00003748  00000-0  25354-3 0  9996,2 53149  53.2158 208.9447 0001902 123.3507 236.7668 15.08826531 79424,6917.922,95.438,541.102,538.471,0.0
